IRIDIUM 57 [-]          
1 25273U 98019B   24104.65467693  .00000417  00000+0  13920-3 0  9992
2 25273  86.3954 325.1704 0002170  88.1680 271.9765 14.35146741363374
IRIDIUM 63 [-]          
1 25286U 98021B   24104.49378294  .00000633  00000+0  21271-3 0  9997
2 25286  86.3944 262.1086 0001953  96.7814 263.3605 14.35674595362170
IRIDIUM 69 [-]          
1 25319U 98026A   24104.54340801  .00000758  00000+0  23521-3 0  9996
2 25319  86.3924 276.6815 0003059  42.8144 317.3293 14.39879082361211
IRIDIUM 71 [-]          
1 25320U 98026B   24104.83558386  .00000785  00000+0  24202-3 0  9996
2 25320  86.3926 271.3282 0004098  77.4459 282.7198 14.40204074362026
IRIDIUM 73 [-]          
1 25344U 98032C   24104.38579306  .00000909  00000+0  22760-3 0  9999
2 25344  86.4447 229.0314 0002213  78.8942 281.2511 14.50408978368238
IRIDIUM 82 [-]          
1 25467U 98051A   24104.56462151  .00013951  00000+0  72931-3 0  9991
2 25467  86.3763 316.4047 0134580  97.7862 263.8678 15.08119204358742
IRIDIUM 2 [-]           
1 25527U 98066A   24104.70848979  .00111089  00000+0  10869-2 0  9998
2 25527  85.5095 345.0152 0003615 133.6277 226.5290 15.65771824397279
